{
  "norad_id": 65319,
  "name": "FFLY03",
  "history": [
    {
      "epoch": "2026-03-28T23:04:55.480800",
      "apogee_km": 595.1746657070316,
      "perigee_km": 583.789158347643,
      "latitude_deg": -27.46290425555516,
      "longitude_deg": 84.22831199970096,
      "semi_major_axis_km": 6967.618912027337,
      "eccentricity": 0.00081703,
      "inclination_deg": 97.7363,
      "raan_deg": 164.4677,
      "arg_perigee_deg": 25.9986,
      "mean_anomaly_deg": 334.1642,
      "mean_motion_rev_day": 14.92712529
    },
    {
      "epoch": "2026-03-29T05:31:02.203104",
      "apogee_km": 595.1546754535257,
      "perigee_km": 583.791896599073,
      "latitude_deg": -62.12101327495103,
      "longitude_deg": 109.9691145599354,
      "semi_major_axis_km": 6967.610286026299,
      "eccentricity": 0.0008154,
      "inclination_deg": 97.7363,
      "raan_deg": 164.7312,
      "arg_perigee_deg": 25.1413,
      "mean_anomaly_deg": 335.0202,
      "mean_motion_rev_day": 14.92715301
    }
  ]
}